{"fetched_at":"2026-03-29T16:36:15Z","count":15609,"tles":[{"name":"STARLINK-11344 [DTC]","line1":"1 61688U 24195B   26087.75252280  .00000139  00000+0  60039-5 0  9999","line2":"2 61688  53.1578 292.5837 0001135  63.4504 296.6630 15.69703365 82027","category":"Starlink"}]}