{
  "norad_id": 61688,
  "name": "STARLINK-11344 [DTC]",
  "history": [
    {
      "epoch": "2026-03-28T18:03:37.969920",
      "apogee_km": 360.51055438643107,
      "perigee_km": 358.98092024740527,
      "latitude_deg": -5.660290362798002,
      "longitude_deg": 61.04218879994005,
      "semi_major_axis_km": 6737.882737316918,
      "eccentricity": 0.00011351,
      "inclination_deg": 53.1578,
      "raan_deg": 292.5837,
      "arg_perigee_deg": 63.4504,
      "mean_anomaly_deg": 296.663,
      "mean_motion_rev_day": 15.69703365
    }
  ]
}